IRVINE01                
1 43693U 18088D   21358.50074499  .00016269  00000+0  58494-3 0  9993
2 43693  85.0329  68.4040 0016448  48.7388 311.5270 15.28374920173435
PROXIMA I               
1 43694U 18088E   21357.66625129  .00005773  00000+0  23642-3 0  9997
2 43694  85.0315  69.8735 0019719  48.5996 311.6938 15.23882433173186
PROXIMA II              
1 43696U 18088G   21358.51868580  .00005332  00000+0  21822-3 0  9993
2 43696  85.0314  69.3207 0019692  45.6011 314.6840 15.23885114173300
FACSAT-1                
1 43721U 18096C   21358.51056303  .00011966  00000+0  40551-3 0  9993
2 43721  97.3708  74.2184 0015082 321.4698 163.6528 15.30600482171175
CENTAURI-2              
1 43722U 18096D   21357.76988348  .00014888  00000+0  47877-3 0  9997
2 43722  97.3735  74.7410 0014293 321.1757  38.8457 15.32248656171121
INNOSAT-2               
1 43738U 18096V   21358.51517229  .00021794  00000+0  60228-3 0  9993
2 43738  97.3823  80.5755 0018047 313.1279 177.0029 15.36893653171559
SIRION PATHFINDER-2     
1 43759U 18099B   21357.86412677  .00001604  00000+0  14871-3 0  9998
2 43759  97.6444  64.0965 0015462 126.7242 233.5402 14.95743223166794
CORVUS BC4              
1 43767U 18099K   21358.14996857  .00001324  00000+0  12557-3 0  9994
2 43767  97.6412  63.1269 0012859 129.4771 230.7589 14.95160939166779
MOVE-II                 
1 43780U 18099Y   21358.15224857  .00003324  00000+0  29778-3 0  9999
2 43780  97.6482  64.7429 0014571 134.4217 225.8199 14.96404861166835
SPACEBEE-7              
1 43816U 18099BL  21358.14253019  .00003092  00000+0  27653-3 0  9992
2 43816  97.6493  65.4157 0014833 120.3200 239.9491 14.96519977166421
SPACEBEE-5              
1 43817U 18099BM  21358.43174479  .00006228  00000+0  52685-3 0  9994
2 43817  97.6619  67.6269 0014268 116.2517 244.0174 14.98316249166544
SPACEBEE-6              
1 43818U 18099BN  21358.45231731  .00003567  00000+0  31399-3 0  9994
2 43818  97.6520  66.3047 0014014 119.9136 240.3479 14.97051909166648
SHIELDS 1               
1 43850U 18104B   21357.92948655  .00002838  00000+0  12112-3 0  9990
2 43850  85.0288 168.5464 0014203 182.6914 177.4255 15.22338719167790
STF-1                   
1 43852U 18104D   21358.51758308  .00007576  00000+0  31482-3 0  9997
2 43852  85.0326 168.7596 0012854 194.7153 165.3718 15.23553203167880
ZACUBE-2                
1 43907U 18111AH  21358.49942220  .00003814  00000+0  15121-3 0  9994
2 43907  97.2111 246.0379 0020458 345.5717 138.3576 15.25783630166600
LUME 1                  
1 43908U 18111AJ  21358.14347508  .00006640  00000+0  24949-3 0  9993
2 43908  97.2118 246.6354 0019401 343.6666  16.3946 15.27322126166613
AOBA VELOX-IV           
1 43940U 19003J   21357.66723377  .00014337  00000+0  49973-3 0  9994
2 43940  97.1544  34.6234 0022668  58.3792 301.9656 15.29494088163204
MOVE-IIB                
1 44398U 19038N   21357.90592864  .00008109  00000+0  43576-3 0  9995
2 44398  97.6010 321.4714 0024717  19.6277 340.5901 15.14897842136436
SONATE                  
1 44400U 19038Q   21357.88785801  .00003730  00000+0  21295-3 0  9990
2 44400  97.6133 321.1133 0025626  21.2146 339.0142 15.13089460136373
LUCKY-7                 
1 44406U 19038W   21357.90140617  .00004554  00000+0  25557-3 0  9999
2 44406  97.6171 321.4720 0024460  20.3195 339.9004 15.13612690136390
BEESAT 9                
1 44412U 19038AC  21358.13169605  .00006310  00000+0  34740-3 0  9996
2 44412  97.6146 321.8034 0022447  24.4316 335.7974 15.14179006136147
JAISAT-1                
1 44419U 19038F   21358.17289794  .00006124  00000+0  33288-3 0  9998
2 44419  97.6154 322.5428 0021331  22.4130 337.8029 15.14665792136507
KRAKSAT                 
1 44427U 98067QM  21358.44913479  .00337398  55873-4  85881-3 0  9999
2 44427  51.6339  42.1141 0004383  10.6325 118.8306 15.94875301141431
DUCHIFAT-3              
1 44854U 19089C   21358.48451852  .00002530  00000+0  20626-3 0  9996
2 44854  36.9661  56.5499 0008329 246.0527 113.9376 14.99895821111643
EYESAT-NANO             
1 44877U 19092E   21357.74332048  .00007853  00000+0  37646-3 0  9991
2 44877  97.4591 178.8630 0011344 247.9495 112.0535 15.19126253111660
ORBITAL FACTORY 2 (OF-2)
1 45113U 19071C   21357.96923609  .00013113  00000+0  35334-3 0  9993
2 45113  51.6393 197.2739 0010533 254.9456 105.0362 15.38106256106313
M2 PATHFINDER           
1 45727U 20037E   21357.74602005  .00000721  00000+0  77406-4 0  9996
2 45727  97.7193 171.6023 0011448 259.7128 100.2808 14.91548924 80638
NETSAT-4                
1 46504U 20068U   21357.80169119  .00001134  00000+0  90093-4 0  9991
2 46504  97.7080 293.2704 0010162 190.8157 169.2873 15.02434300 67663
NETSAT-3                
1 46505U 20068V   21357.87938434  .00001777  00000+0  13868-3 0  9990
2 46505  97.7075 293.2921 0010076 193.4388 166.6576 15.02416423 67687
NETSAT-1                
1 46506U 20068W   21357.82388905  .00001957  00000+0  15241-3 0  9995
2 46506  97.7064 293.1860 0009281 206.8645 153.2102 15.02379071 67671
NETSAT-2                
1 46507U 20068X   21357.83062364  .00002351  00000+0  18224-3 0  9998
2 46507  97.7066 293.1867 0008868 216.0820 143.9807 15.02359716 67626
SPOC                    
1 46921U 98067RR  21357.61399248  .00041922  00000+0  49698-3 0  9998
2 46921  51.6391 109.1006 0000896  58.8470 301.2611 15.60789684 64335
BOBCAT-1                
1 46922U 98067RS  21358.51598717  .00080430  00000+0  73891-3 0  9990
2 46922  51.6404  98.6603 0000793 352.5583   7.5401 15.66995063 64509
NEUTRON-1               
1 46923U 98067RT  21358.54173561  .00040255  00000+0  47810-3 0  9993
2 46923  51.6397 104.7978 0000917  78.0946 282.0151 15.60760396 64499
1998-067RU              
1 46924U 98067RU  21358.45014137  .00992430  51330-3  16112-2 0  9994
2 46924  51.6228  81.4316 0008519 358.8081   1.2909 16.02774638 64757
DESCENT                 
1 46927U 98067RX  21358.54293113  .00041336  00000+0  48822-3 0  9998
2 46927  51.6398 104.8025 0001088 115.2805 244.8302 15.60893019 64400
SAI-1 NANOCONNECT-2     
1 47701U 21015C   21357.68475522 -.00000072  00000+0  00000+0 0  9993
2 47701  97.4497  70.8400 0014278   0.9311 359.2303 15.23782141 45420
WARP-01                 
1 47924U 98067SA  21357.73825290  .00060051  00000+0  71175-3 0  9995
2 47924  51.6385 115.1460 0002537  97.7931 262.3350 15.60637344 44252
RSP-01                  
1 47925U 98067SB  21357.78206812  .00046573  00000+0  60208-3 0  9992
2 47925  51.6407 116.2119 0001286 355.5078   4.5903 15.58459466 44229
TAUSAT-1                
1 47926U 98067SC  21358.49760124  .00058678  00000+0  68224-3 0  9998
2 47926  51.6393 110.4742 0002210 354.6470   5.4499 15.61148684 44351
TSURU                   
1 47927U 98067SD  21357.71054291  .00039067  00000+0  52380-3 0  9991
2 47927  51.6401 117.2335 0001321 359.0138   1.0851 15.57566032 44201
STARS-EC                
1 47928U 98067SE  21357.79450088  .00069942  00000+0  80599-3 0  9992
2 47928  51.6395 114.7808 0002787 102.1164 258.0142 15.61305342 44223
MAYA-2                  
1 47929U 98067SF  21357.70616913  .00039965  00000+0  53558-3 0  9992
2 47929  51.6400 117.2018 0001438 354.9803   5.1175 15.57568254 44169
HIROGARI (OPUSAT-II)    
1 47930U 98067SG  21357.83761810  .00068762  00000+0  76903-3 0  9991
2 47930  51.6390 113.5814 0001734 325.0640  35.0240 15.62088988 44262
GUARANISAT-1            
1 47931U 98067SH  21357.63812230  .00040425  00000+0  54077-3 0  9997
2 47931  51.6405 117.5032 0001442 355.6025   4.4954 15.57611307 44193
SMOG-1                  
1 47964U 21022AJ  21357.68901556  .00005526  00000+0  36346-3 0  9997
2 47964  97.5437 256.4825 0020212  22.5273 337.6838 15.07806919 40386
MMSATS-1                
1 47976U 98067SJ  21357.95610298  .00015504  00000+0  25792-3 0  9993
2 47976  51.6386 121.0743 0002658  86.9753 273.1540 15.52233316 42954
BCCSAT-1                
1 48041U 21022AK  21357.72426629  .00005113  00000+0  34274-3 0  9992
2 48041  97.5454 256.3155 0016590  21.6396 338.5529 15.07196947 40354
RAMSAT                  
1 48850U 98067SL  21357.92114465  .00026880  00000+0  41456-3 0  9991
2 48850  51.6405 120.8558 0003823 126.9474 233.1867 15.53947220 29926
SOAR                    
1 48851U 98067SM  21357.93270859  .00110495  00000+0  10901-2 0  9999
2 48851  51.6354 114.8974 0001705 173.3191 186.7827 15.65077719 30048
BD-28                   
1 48867U 98067SN  21357.89020592  .00031813  00000+0  47916-3 0  9991
2 48867  51.6399 120.6472 0002857 165.1971 194.9104 15.54509362 28673
MIR-SAT 1               
1 48868U 98067SP  21357.85114603  .00066828  00000+0  83957-3 0  9994
2 48868  51.6391 118.8871 0001529 158.7615 201.3442 15.59064113 28725
1998-067SR              
1 49272U 98067SR  21357.61159732  .00027958  00000+0  45683-3 0  9995
2 49272  51.6410 124.7744 0004502  21.5341 338.5838 15.52318523 12230
1998-067SS              
1 49273U 98067SS  21357.85744717  .00034251  00000+0  54675-3 0  9990
2 49273  51.6406 123.4172 0004267  16.9642 343.1490 15.52861990 12278
1998-067ST              
1 49274U 98067ST  21357.73110952  .00033715  00000+0  53973-3 0  9990
2 49274  51.6406 124.0729 0004146  15.6454 344.4664 15.52790866 12255
CUAVA-1                 
1 49275U 98067SU  21358.58093480  .00037064  00000+0  59091-3 0  9999
2 49275  51.6424 119.7988 0004200  32.0377  59.7434 15.52859060 12334
